0 SAUDICOMSAT 6
1 31121U 07012E   13281.54550286  .00000421  00000-0  99245-4 0  9628
2 31121 097.8565 279.1209 0078630 027.7134 088.8595 14.57134002344447
0 SAUDICOMSAT 6
1 31121U 07012E   13282.57622221  .00000424  00000-0  99836-4 0  9631
2 31121 097.8564 280.0935 0078544 024.4980 095.6731 14.57136602344592
0 SAUDICOMSAT 6
1 31121U 07012E   13283.73972979  .00000459  00000-0  10737-3 0  9649
2 31121 097.8563 281.1915 0078452 020.8688 079.0569 14.57138213344768
0 SAUDICOMSAT 6
1 31121U 07012E   13286.49846389  .00000457  00000-0  10691-3 0  9669
2 31121 097.8561 283.7948 0078227 012.2415 150.5320 14.57140971345162
0 SAUDICOMSAT 6
1 31121U 07012E   13287.79573152  .00000630  00000-0  14391-3 0  9673
2 31121 097.8561 285.0189 0078135 008.1499 115.6472 14.57143383345359
0 SAUDICOMSAT 6
1 31121U 07012E   13288.82502436  .00000664  00000-0  15113-3 0  9686
2 31121 097.8562 285.9900 0078058 004.9164 115.0346 14.57144851345509
0 SAUDICOMSAT 6
1 31121U 07012E   13290.12393942  .00000585  00000-0  13436-3 0  9691
2 31121 097.8565 287.2155 0077956 000.8266 088.8006 14.57147022345696
0 SAUDICOMSAT 6
1 31121U 07012E   13291.51003852  .00000588  00000-0  13486-3 0  9703
2 31121 097.8567 288.5233 0077837 356.4629 159.9232 14.57148804345892
0 SAUDICOMSAT 6
1 31121U 07012E   13292.92758964  .00000691  00000-0  15688-3 0  9712
2 31121 097.8569 289.8609 0077735 351.9968 036.0499 14.57150424346104
0 SAUDICOMSAT 6
1 31121U 07012E   13293.95780069  .00000705  00000-0  15980-3 0  9729
2 31121 097.8570 290.8330 0077660 348.7526 040.2889 14.57151973346256
0 SAUDICOMSAT 6
1 31121U 07012E   13294.99287096  .00000736  00000-0  16640-3 0  9735
2 31121 097.8570 291.8098 0077576 345.4699 070.0461 14.57153766346405
